NOAA 15                 
1 25338U 98030A   22268.46566413  .00000130  00000+0  72337-4 0  9995
2 25338  98.6381 296.6645 0010468  12.4889 347.6548 14.26173676267271
NOAA 18                 
1 28654U 05018A   22268.49123449  .00000185  00000+0  12362-3 0  9995
2 28654  98.9413 338.8114 0014956  52.1152 308.1369 14.12779803894104
NOAA 19                 
1 33591U 09005A   22268.50383159  .00000146  00000+0  10385-3 0  9999
2 33591  99.1401 304.7061 0012932 266.7149  93.2542 14.12612808702311
METOP-B                 
1 38771U 12049A   22268.52245363  .00000076  00000+0  54925-4 0  9993
2 38771  98.7196 326.7839 0001837  97.5302  40.7689 14.21475380519959
SARAL                   
1 39086U 13009A   22268.51333511  .00000050  00000+0  35031-4 0  9991
2 39086  98.5491  92.6797 0001235  38.5184 321.6088 14.32029431500804
METOP-C                 
1 43689U 18087A   22268.46177749  .00000081  00000+0  56769-4 0  9994
2 43689  98.6742 326.7799 0003836 107.3005 252.8593 14.21509376201518
ANGELS                  
1 44876U 19092D   22268.45470944  .00002907  00000+0  14464-3 0  9996
2 44876  97.4764  90.6333 0012335  17.3320 342.8333 15.18349836153410
